      2.10          N: GNSS NAV DATA                        RINEX VERSION / TYPE
fic2rin                                 11/07/2023 00:17:32 PGM / RUN BY / DATE
                                                            END OF HEADER
17 23 11  6 18  0  0.0  .723464414477D-03 -.227373675443D-12  .000000000000D+00
     .200000000000D+02  .156250000000D+01  .411088552060D-08 -.264536110392D+01
     .197440385818D-06  .138258888619D-01  .769644975662D-05  .515361264610D+04
     .151200000000D+06  .139698386192D-06 -.161433230070D+01  .242143869400D-07
     .971696415445D+00  .237750000000D+03 -.138062773186D+01 -.764817572007D-08
    -.370729728096D-09  .100000000000D+01  .228700000000D+04  .000000000000D+00
     .240000000000D+01  .000000000000D+00 -.111758708954D-07  .200000000000D+02
     .144000000000D+06  .400000000000D+01
29 23 11  6 18  0  0.0 -.610231887549D-03  .000000000000D+00  .000000000000D+00
     .850000000000D+02  .318750000000D+01  .414910139816D-08 -.276584644298D+01
     .596046447754D-07  .253276759759D-02  .742077827454D-05  .515369213104D+04
     .151200000000D+06  .130385160446D-07 -.159982901717D+01  .707805156708D-07
     .974025325436D+00  .245093750000D+03  .257422224895D+01 -.786068457192D-08
    -.377872882779D-09  .100000000000D+01  .228700000000D+04  .000000000000D+00
     .240000000000D+01  .000000000000D+00 -.977888703346D-08  .850000000000D+02
     .144000000000D+06  .400000000000D+01
24 23 11  6 18  0  0.0 -.364893116057D-03 -.920863385545D-11  .000000000000D+00
     .670000000000D+02 -.528125000000D+01  .515128600031D-08  .178808387534D+01
    -.350177288055D-06  .148088627029D-01  .996328890324D-05  .515363433266D+04
     .151200000000D+06 -.385567545891D-06  .242099208829D+01 -.204890966415D-06
     .934017950900D+00  .175562500000D+03  .939288723317D+00 -.825534386821D-08
     .148577617426D-09  .100000000000D+01  .228700000000D+04  .000000000000D+00
     .240000000000D+01  .000000000000D+00  .232830643654D-08  .670000000000D+02
     .144000000000D+06  .400000000000D+01
21 23 11  6 18  0  0.0  .144951045513D-03 -.102318153949D-11  .000000000000D+00
     .850000000000D+02  .563437500000D+02  .405909764914D-08 -.265849616113D+01
     .315532088280D-05  .248698511859D-01  .820867717266D-05  .515376338005D+04
     .151200000000D+06 -.856816768646D-07 -.716823407372D+00  .355765223503D-06
     .961994445147D+00  .218875000000D+03 -.687570969142D+00 -.764317551180D-08
     .942896418278D-10  .100000000000D+01  .228700000000D+04  .000000000000D+00
     .240000000000D+01  .000000000000D+00 -.102445483208D-07  .850000000000D+02
     .144000000000D+06  .400000000000D+01
22 23 11  6 18  0  0.0  .888197682798D-04 -.704858393874D-11  .000000000000D+00
     .580000000000D+02  .385000000000D+02  .462519265784D-08 -.209111130140D+01
     .207871198654D-05  .150870296638D-01  .601448118687D-05  .515372624016D+04
     .151200000000D+06  .260770320892D-07 -.263254852945D+01  .350177288055D-06
     .963121967313D+00  .266250000000D+03 -.116988461757D+01 -.796926052312D-08
    -.160363822654D-09  .100000000000D+01  .228700000000D+04  .000000000000D+00
     .340000000000D+01  .000000000000D+00 -.111758708954D-07  .580000000000D+02
     .144000000000D+06  .400000000000D+01
15 23 11  6 18  0  0.0  .945148058236D-04  .375166564481D-11  .000000000000D+00
     .480000000000D+02 -.706250000000D+02  .516700094061D-08  .255379194405D+01
    -.379234552383D-05  .154641149566D-01  .628456473351D-05  .515356907463D+04
     .151200000000D+06  .100582838058D-06  .131956743303D+01 -.182539224625D-06
     .933273493833D+00  .243687500000D+03  .126897845311D+01 -.813248160764D-08
    -.307155651409D-10  .100000000000D+01  .228700000000D+04  .000000000000D+00
     .240000000000D+01  .000000000000D+00 -.107102096081D-07  .480000000000D+02
     .144000000000D+06  .400000000000D+01
12 23 11  6 18  0  0.0 -.444123987108D-03 -.409272615798D-11  .000000000000D+00
     .980000000000D+02  .355937500000D+02  .475662670402D-08  .899547068832D-01
     .183098018169D-05  .868058903143D-02  .604614615440D-05  .515376192284D+04
     .151200000000D+06 -.819563865662D-07 -.265393961311D+01  .298023223877D-07
     .964254195686D+00  .264906250000D+03  .139464660079D+01 -.832606109958D-08
    -.117147736816D-09  .100000000000D+01  .228700000000D+04  .000000000000D+00
     .240000000000D+01  .000000000000D+00 -.125728547573D-07  .980000000000D+02
     .144000000000D+06  .400000000000D+01
16 23 11  6 18  0  0.0 -.426650047302D-03  .648014975013D-11  .000000000000D+00
     .940000000000D+02  .311875000000D+02  .463840749400D-08 -.168006477221D+01
     .162981450558D-05  .135925681097D-01  .580959022045D-05  .515367756844D+04
     .151200000000D+06  .214204192162D-06 -.263585006052D+01 -.100582838058D-06
     .963846612080D+00  .267125000000D+03  .799735876781D+00 -.795604568695D-08
    -.346443002170D-10  .100000000000D+01  .228700000000D+04  .000000000000D+00
     .240000000000D+01  .000000000000D+00 -.102445483208D-07  .940000000000D+02
     .144000000000D+06  .400000000000D+01
20 23 11  6 18  0  0.0  .402983743697D-03 -.193267624127D-11  .000000000000D+00
     .930000000000D+02  .853125000000D+01  .473698302864D-08  .227550822661D+01
     .441446900368D-06  .409749185201D-02  .474974513054D-05  .515365008736D+04
     .151200000000D+06 -.875443220139D-07  .246119460732D+00  .130385160446D-07
     .951114217222D+00  .279718750000D+03 -.278450872507D+01 -.831748931396D-08
     .245724521127D-09  .100000000000D+01  .228700000000D+04  .000000000000D+00
     .240000000000D+01  .000000000000D+00 -.838190317154D-08  .930000000000D+02
     .144000000000D+06  .400000000000D+01
11 23 11  6 18  0  0.0 -.448621343821D-03 -.164845914696D-10  .000000000000D+00
     .226000000000D+03  .286875000000D+02  .412231456809D-08  .289810149927D+01
     .160932540894D-05  .126747658942D-02  .795535743237D-05  .515362346840D+04
     .151200000000D+06 -.149011611938D-07 -.579414527261D+00 -.391155481339D-07
     .966125294242D+00  .226750000000D+03 -.261078979545D+01 -.793318759196D-08
     .143577409147D-09  .100000000000D+01  .228700000000D+04  .000000000000D+00
     .240000000000D+01  .000000000000D+00 -.838190317154D-08  .482000000000D+03
     .144000000000D+06  .400000000000D+01
23 23 11  6 18  0  0.0  .945590436459D-04  .625277607469D-11  .000000000000D+00
     .237000000000D+03 -.127187500000D+02  .430089343519D-08  .549960457958D+00
    -.625848770142D-06  .382543692831D-02  .454485416412D-05  .515368993187D+04
     .151200000000D+06  .651925802231D-07  .389458402163D+00  .409781932831D-07
     .976378244839D+00  .300343750000D+03 -.305187903999D+01 -.809605151876D-08
     .201079804352D-09  .100000000000D+01  .228700000000D+04  .000000000000D+00
     .240000000000D+01  .000000000000D+00 -.838190317154D-08  .237000000000D+03
     .144000000000D+06  .400000000000D+01
18 23 11  6 18  0  0.0 -.471406616271D-03 -.111413100967D-10  .000000000000D+00
     .198000000000D+03  .359687500000D+02  .399909514979D-08  .154720423607D+01
     .199116766453D-05  .382426928263D-02  .753067433834D-05  .515365128326D+04
     .151200000000D+06 -.763684511185D-07 -.610049092456D+00  .614672899246D-07
     .974506076890D+00  .242406250000D+03 -.304990571565D+01 -.784425531615D-08
     .325013538118D-10  .100000000000D+01  .228700000000D+04  .000000000000D+00
     .240000000000D+01  .000000000000D+00 -.838190317154D-08  .966000000000D+03
     .144000000000D+06  .400000000000D+01
